[{"OBJECT_NAME":"TRANSPORTER-16 OBJECT AY","OBJECT_ID":"2026-067AY","EPOCH":"2026-04-23T16:42:28.660320","MEAN_MOTION":15.17954183,"ECCENTRICITY":0.00019822,"INCLINATION":97.452,"RA_OF_ASC_NODE":72.9774,"ARG_OF_PERICENTER":164.3456,"MEAN_ANOMALY":195.784,"EPHEMERIS_TYPE":0,"CLASSIFICATION_TYPE":"U","NORAD_CAT_ID":68462,"ELEMENT_SET_NO":999,"REV_AT_EPOCH":367,"BSTAR":0.00030610187,"MEAN_MOTION_DOT":6.149e-5,"MEAN_MOTION_DDOT":0},{"OBJECT_NAME":"GARAI-B (UNAMUNO)","OBJECT_ID":"2026-067AZ","EPOCH":"2026-04-23T16:55:26.482368","MEAN_MOTION":15.17274441,"ECCENTRICITY":0.0001679,"INCLINATION":97.4502,"RA_OF_ASC_NODE":72.9588,"ARG_OF_PERICENTER":252.2056,"MEAN_ANOMALY":107.8995,"EPHEMERIS_TYPE":0,"CLASSIFICATION_TYPE":"U","NORAD_CAT_ID":68463,"ELEMENT_SET_NO":999,"REV_AT_EPOCH":367,"BSTAR":9.0e-5,"MEAN_MOTION_DOT":1.725e-5,"MEAN_MOTION_DDOT":0},{"OBJECT_NAME":"TRANSPORTER-16 OBJECT BA","OBJECT_ID":"2026-067BA","EPOCH":"2026-04-23T15:20:40.124256","MEAN_MOTION":15.17324986,"ECCENTRICITY":0.00013483,"INCLINATION":97.4483,"RA_OF_ASC_NODE":72.887,"ARG_OF_PERICENTER":266.599,"MEAN_ANOMALY":93.5089,"EPHEMERIS_TYPE":0,"CLASSIFICATION_TYPE":"U","NORAD_CAT_ID":68464,"ELEMENT_SET_NO":999,"REV_AT_EPOCH":366,"BSTAR":0.00019453667,"MEAN_MOTION_DOT":3.813e-5,"MEAN_MOTION_DDOT":0},{"OBJECT_NAME":"TRANSPORTER-16 OBJECT BB","OBJECT_ID":"2026-067BB","EPOCH":"2026-04-23T15:21:09.000000","MEAN_MOTION":15.17276012,"ECCENTRICITY":0.00013664,"INCLINATION":97.4489,"RA_OF_ASC_NODE":72.8883,"ARG_OF_PERICENTER":263.4369,"MEAN_ANOMALY":96.6709,"EPHEMERIS_TYPE":0,"CLASSIFICATION_TYPE":"U","NORAD_CAT_ID":68465,"ELEMENT_SET_NO":999,"REV_AT_EPOCH":366,"BSTAR":0.00013905523,"MEAN_MOTION_DOT":2.702e-5,"MEAN_MOTION_DDOT":0},{"OBJECT_NAME":"TRANSPORTER-16 OBJECT BC","OBJECT_ID":"2026-067BC","EPOCH":"2026-04-23T13:58:03.386496","MEAN_MOTION":15.16829429,"ECCENTRICITY":0.00041142,"INCLINATION":97.4449,"RA_OF_ASC_NODE":72.801,"ARG_OF_PERICENTER":271.6336,"MEAN_ANOMALY":88.4426,"EPHEMERIS_TYPE":0,"CLASSIFICATION_TYPE":"U","NORAD_CAT_ID":68466,"ELEMENT_SET_NO":999,"REV_AT_EPOCH":350,"BSTAR":0.00028500343,"MEAN_MOTION_DOT":5.539e-5,"MEAN_MOTION_DDOT":0},{"OBJECT_NAME":"TRANSPORTER-16 OBJECT BD","OBJECT_ID":"2026-067BD","EPOCH":"2026-04-23T15:27:10.355904","MEAN_MOTION":15.17283267,"ECCENTRICITY":0.00040742,"INCLINATION":97.4379,"RA_OF_ASC_NODE":72.8536,"ARG_OF_PERICENTER":263.4206,"MEAN_ANOMALY":96.6564,"EPHEMERIS_TYPE":0,"CLASSIFICATION_TYPE":"U","NORAD_CAT_ID":68467,"ELEMENT_SET_NO":999,"REV_AT_EPOCH":366,"BSTAR":0.00065847635,"MEAN_MOTION_DOT":0.00013066,"MEAN_MOTION_DDOT":0},{"OBJECT_NAME":"ERMIS-1","OBJECT_ID":"2026-067BE","EPOCH":"2026-04-23T15:34:38.798688","MEAN_MOTION":15.16793078,"ECCENTRICITY":0.00048892,"INCLINATION":97.452,"RA_OF_ASC_NODE":72.8869,"ARG_OF_PERICENTER":238.1408,"MEAN_ANOMALY":121.935,"EPHEMERIS_TYPE":0,"CLASSIFICATION_TYPE":"U","NORAD_CAT_ID":68468,"ELEMENT_SET_NO":999,"REV_AT_EPOCH":366,"BSTAR":0.00032980889,"MEAN_MOTION_DOT":6.415e-5,"MEAN_MOTION_DDOT":0},{"OBJECT_NAME":"TRANSPORTER-16 OBJECT BF","OBJECT_ID":"2026-067BF","EPOCH":"2026-04-23T15:19:54.892128","MEAN_MOTION":15.17328196,"ECCENTRICITY":0.00014809,"INCLINATION":97.4506,"RA_OF_ASC_NODE":72.8955,"ARG_OF_PERICENTER":246.8312,"MEAN_ANOMALY":113.2765,"EPHEMERIS_TYPE":0,"CLASSIFICATION_TYPE":"U","NORAD_CAT_ID":68469,"ELEMENT_SET_NO":999,"REV_AT_EPOCH":366,"BSTAR":0.00013713998,"MEAN_MOTION_DOT":2.668e-5,"MEAN_MOTION_DDOT":0},{"OBJECT_NAME":"TRANSPORTER-16 OBJECT BG","OBJECT_ID":"2026-067BG","EPOCH":"2026-04-23T15:35:34.855872","MEAN_MOTION":15.16740729,"ECCENTRICITY":0.00049878,"INCLINATION":97.4441,"RA_OF_ASC_NODE":72.8632,"ARG_OF_PERICENTER":255.0635,"MEAN_ANOMALY":105.0046,"EPHEMERIS_TYPE":0,"CLASSIFICATION_TYPE":"U","NORAD_CAT_ID":68470,"ELEMENT_SET_NO":999,"REV_AT_EPOCH":366,"BSTAR":0.0003007469,"MEAN_MOTION_DOT":5.835e-5,"MEAN_MOTION_DDOT":0},{"OBJECT_NAME":"TRANSPORTER-16 OBJECT BH","OBJECT_ID":"2026-067BH","EPOCH":"2026-04-23T15:52:03.726336","MEAN_MOTION":14.91028199,"ECCENTRICITY":0.00025062,"INCLINATION":97.7543,"RA_OF_ASC_NODE":72.7403,"ARG_OF_PERICENTER":209.6964,"MEAN_ANOMALY":150.4112,"EPHEMERIS_TYPE":0,"CLASSIFICATION_TYPE":"U","NORAD_CAT_ID":68471,"ELEMENT_SET_NO":999,"REV_AT_EPOCH":360,"BSTAR":0.00044762952,"MEAN_MOTION_DOT":4.374e-5,"MEAN_MOTION_DDOT":0},{"OBJECT_NAME":"FLYLAB1","OBJECT_ID":"2026-067BJ","EPOCH":"2026-04-23T15:54:37.068192","MEAN_MOTION":14.9085774,"ECCENTRICITY":0.00034907,"INCLINATION":97.7593,"RA_OF_ASC_NODE":72.7493,"ARG_OF_PERICENTER":200.2797,"MEAN_ANOMALY":159.8283,"EPHEMERIS_TYPE":0,"CLASSIFICATION_TYPE":"U","NORAD_CAT_ID":68472,"ELEMENT_SET_NO":999,"REV_AT_EPOCH":360,"BSTAR":5.2738214e-5,"MEAN_MOTION_DOT":4.64e-6,"MEAN_MOTION_DDOT":0},{"OBJECT_NAME":"TRANSPORTER-16 OBJECT BK","OBJECT_ID":"2026-067BK","EPOCH":"2026-04-23T02:27:42.480864","MEAN_MOTION":15.17971361,"ECCENTRICITY":0.00016019,"INCLINATION":97.4504,"RA_OF_ASC_NODE":72.3873,"ARG_OF_PERICENTER":162.7899,"MEAN_ANOMALY":197.3389,"EPHEMERIS_TYPE":0,"CLASSIFICATION_TYPE":"U","NORAD_CAT_ID":68473,"ELEMENT_SET_NO":999,"REV_AT_EPOCH":356,"BSTAR":0.00027882021,"MEAN_MOTION_DOT":5.598e-5,"MEAN_MOTION_DDOT":0},{"OBJECT_NAME":"BLACK KITE-2","OBJECT_ID":"2026-067BL","EPOCH":"2026-04-23T02:28:47.474400","MEAN_MOTION":14.9232172,"ECCENTRICITY":0.00039666,"INCLINATION":97.7513,"RA_OF_ASC_NODE":72.2332,"ARG_OF_PERICENTER":77.2364,"MEAN_ANOMALY":282.9298,"EPHEMERIS_TYPE":0,"CLASSIFICATION_TYPE":"U","NORAD_CAT_ID":68474,"ELEMENT_SET_NO":999,"REV_AT_EPOCH":351,"BSTAR":0.00026072258,"MEAN_MOTION_DOT":2.609e-5,"MEAN_MOTION_DDOT":0},{"OBJECT_NAME":"TRANSPORTER-16 OBJECT BM","OBJECT_ID":"2026-067BM","EPOCH":"2026-04-23T02:58:11.790912","MEAN_MOTION":14.91130016,"ECCENTRICITY":0.00019066,"INCLINATION":97.7493,"RA_OF_ASC_NODE":72.2026,"ARG_OF_PERICENTER":225.2408,"MEAN_ANOMALY":134.8655,"EPHEMERIS_TYPE":0,"CLASSIFICATION_TYPE":"U","NORAD_CAT_ID":68475,"ELEMENT_SET_NO":999,"REV_AT_EPOCH":299,"BSTAR":0.00053809451,"MEAN_MOTION_DOT":5.283e-5,"MEAN_MOTION_DDOT":0},{"OBJECT_NAME":"TRANSPORTER-16 OBJECT BN","OBJECT_ID":"2026-067BN","EPOCH":"2026-04-23T02:29:13.196544","MEAN_MOTION":14.92320331,"ECCENTRICITY":0.00041751,"INCLINATION":97.753,"RA_OF_ASC_NODE":72.2356,"ARG_OF_PERICENTER":87.891,"MEAN_ANOMALY":272.2787,"EPHEMERIS_TYPE":0,"CLASSIFICATION_TYPE":"U","NORAD_CAT_ID":68476,"ELEMENT_SET_NO":999,"REV_AT_EPOCH":351,"BSTAR":0.00036538917,"MEAN_MOTION_DOT":3.679e-5,"MEAN_MOTION_DDOT":0},{"OBJECT_NAME":"TRANSPORTER-16 OBJECT BP","OBJECT_ID":"2026-067BP","EPOCH":"2026-04-22T20:31:37.985664","MEAN_MOTION":14.91102302,"ECCENTRICITY":0.00024688,"INCLINATION":97.75,"RA_OF_ASC_NODE":71.9395,"ARG_OF_PERICENTER":230.3483,"MEAN_ANOMALY":129.7518,"EPHEMERIS_TYPE":0,"CLASSIFICATION_TYPE":"U","NORAD_CAT_ID":68477,"ELEMENT_SET_NO":999,"REV_AT_EPOCH":288,"BSTAR":0.00048072279,"MEAN_MOTION_DOT":4.711e-5,"MEAN_MOTION_DDOT":0}]
