TRANSPORTER-16 OBJECT AY
1 68462U 26067AY  26113.69616505  .00006149  00000+0  30610-3 0  9990
2 68462  97.4520  72.9774 0001982 164.3456 195.7840 15.17954183  3674
GARAI-B (UNAMUNO)       
1 68463U 26067AZ  26113.70516762  .00001725  00000+0  90000-4 0  9992
2 68463  97.4502  72.9588 0001679 252.2056 107.8995 15.17274441  3671
TRANSPORTER-16 OBJECT BA
1 68464U 26067BA  26113.63935329  .00003813  00000+0  19454-3 0  9992
2 68464  97.4483  72.8870 0001348 266.5990  93.5089 15.17324986  3665
TRANSPORTER-16 OBJECT BB
1 68465U 26067BB  26113.63968750  .00002702  00000+0  13906-3 0  9999
2 68465  97.4489  72.8883 0001366 263.4369  96.6709 15.17276012  3661
TRANSPORTER-16 OBJECT BC
1 68466U 26067BC  26113.58198364  .00005539  00000+0  28500-3 0  9997
2 68466  97.4449  72.8010 0004114 271.6336  88.4426 15.16829429  3502
TRANSPORTER-16 OBJECT BD
1 68467U 26067BD  26113.64386986  .00013066  00000+0  65848-3 0  9994
2 68467  97.4379  72.8536 0004074 263.4206  96.6564 15.17283267  3664
ERMIS-1                 
1 68468U 26067BE  26113.64906017  .00006415  00000+0  32981-3 0  9990
2 68468  97.4520  72.8869 0004889 238.1408 121.9350 15.16793078  3669
TRANSPORTER-16 OBJECT BF
1 68469U 26067BF  26113.63882977  .00002668  00000+0  13714-3 0  9997
2 68469  97.4506  72.8955 0001480 246.8312 113.2765 15.17328196  3664
TRANSPORTER-16 OBJECT BG
1 68470U 26067BG  26113.64970898  .00005835  00000+0  30075-3 0  9998
2 68470  97.4441  72.8632 0004987 255.0635 105.0046 15.16740729  3661
TRANSPORTER-16 OBJECT BH
1 68471U 26067BH  26113.66115424  .00004374  00000+0  44763-3 0  9993
2 68471  97.7543  72.7403 0002506 209.6964 150.4112 14.91028199  3602
FLYLAB1                 
1 68472U 26067BJ  26113.66292903  .00000464  00000+0  52738-4 0  9990
2 68472  97.7593  72.7493 0003490 200.2797 159.8283 14.90857740  3604
TRANSPORTER-16 OBJECT BK
1 68473U 26067BK  26113.10257501  .00005598  00000+0  27882-3 0  9999
2 68473  97.4504  72.3873 0001601 162.7899 197.3389 15.17971361  3564
BLACK KITE-2            
1 68474U 26067BL  26113.10332725  .00002609  00000+0  26072-3 0  9992
2 68474  97.7513  72.2332 0003966  77.2364 282.9298 14.92321720  3515
TRANSPORTER-16 OBJECT BM
1 68475U 26067BM  26113.12374758  .00005283  00000+0  53809-3 0  9996
2 68475  97.7493  72.2026 0001906 225.2408 134.8655 14.91130016  2997
TRANSPORTER-16 OBJECT BN
1 68476U 26067BN  26113.10362496  .00003679  00000+0  36539-3 0  9999
2 68476  97.7530  72.2356 0004175  87.8910 272.2787 14.92320331  3511
TRANSPORTER-16 OBJECT BP
1 68477U 26067BP  26112.85530076  .00004711  00000+0  48072-3 0  9995
2 68477  97.7500  71.9395 0002468 230.3483 129.7518 14.91102302  2883
